[{"OBJECT_NAME":"GHGSAT-C8","OBJECT_ID":"2023-054J","EPOCH":"2026-03-09T23:10:01.317792","MEAN_MOTION":15.49937888,"ECCENTRICITY":0.00074211,"INCLINATION":97.3083,"RA_OF_ASC_NODE":336.6662,"ARG_OF_PERICENTER":72.8348,"MEAN_ANOMALY":287.3715,"EPHEMERIS_TYPE":0,"CLASSIFICATION_TYPE":"U","NORAD_CAT_ID":56186,"ELEMENT_SET_NO":999,"REV_AT_EPOCH":16305,"BSTAR":0.00034138047,"MEAN_MOTION_DOT":0.00019034,"MEAN_MOTION_DDOT":0},{"OBJECT_NAME":"FREGAT DEB","OBJECT_ID":"2011-037BV","EPOCH":"2026-03-08T05:45:34.376544","MEAN_MOTION":11.841002,"ECCENTRICITY":0.16352432,"INCLINATION":51.4346,"RA_OF_ASC_NODE":250.7968,"ARG_OF_PERICENTER":264.1792,"MEAN_ANOMALY":77.1145,"EPHEMERIS_TYPE":0,"CLASSIFICATION_TYPE":"U","NORAD_CAT_ID":45835,"ELEMENT_SET_NO":999,"REV_AT_EPOCH":24132,"BSTAR":0.0027919036,"MEAN_MOTION_DOT":0.00015279,"MEAN_MOTION_DDOT":0}]
